CCSDS_OMM_VERS = 2.0
CREATION_DATE  = 
ORIGINATOR     = 

OBJECT_NAME    = STARLINK-36413
OBJECT_ID      = 2026-003E
CENTER_NAME    = EARTH
REF_FRAME      = TEME
TIME_SYSTEM    = UTC
MEAN_ELEMENT_THEORY = SGP/SGP4

EPOCH          = 2026-01-18T22:00:03.000096
MEAN_MOTION    = 15.89150272
ECCENTRICITY   = .00015468
INCLINATION    = 42.9983
RA_OF_ASC_NODE = 155.2433
ARG_OF_PERICENTER = 275.0479
MEAN_ANOMALY   = 346.9502

EPHEMERIS_TYPE = 0
CLASSIFICATION_TYPE = U
NORAD_CAT_ID   = 67338
ELEMENT_SET_NO = 999
REV_AT_EPOCH   = 267
BSTAR          = -.50577732E-2
MEAN_MOTION_DOT = -.1327505E-1
MEAN_MOTION_DDOT = 0

CCSDS_OMM_VERS = 2.0
CREATION_DATE  = 
ORIGINATOR     = 

OBJECT_NAME    = STARLINK-36451
OBJECT_ID      = 2026-003F
CENTER_NAME    = EARTH
REF_FRAME      = TEME
TIME_SYSTEM    = UTC
MEAN_ELEMENT_THEORY = SGP/SGP4

EPOCH          = 2026-01-18T22:00:03.000096
MEAN_MOTION    = 15.89182662
ECCENTRICITY   = .00016149
INCLINATION    = 42.9982
RA_OF_ASC_NODE = 155.2375
ARG_OF_PERICENTER = 275.3294
MEAN_ANOMALY   = 348.8235

EPHEMERIS_TYPE = 0
CLASSIFICATION_TYPE = U
NORAD_CAT_ID   = 67339
ELEMENT_SET_NO = 999
REV_AT_EPOCH   = 267
BSTAR          = -.50657528E-2
MEAN_MOTION_DOT = -.1331336E-1
MEAN_MOTION_DDOT = 0

CCSDS_OMM_VERS = 2.0
CREATION_DATE  = 
ORIGINATOR     = 

OBJECT_NAME    = STARLINK-36339
OBJECT_ID      = 2026-003G
CENTER_NAME    = EARTH
REF_FRAME      = TEME
TIME_SYSTEM    = UTC
MEAN_ELEMENT_THEORY = SGP/SGP4

EPOCH          = 2026-01-18T22:00:03.000096
MEAN_MOTION    = 15.89214733
ECCENTRICITY   = .00015925
INCLINATION    = 42.9982
RA_OF_ASC_NODE = 155.2315
ARG_OF_PERICENTER = 273.2990
MEAN_ANOMALY   = 353.4305

EPHEMERIS_TYPE = 0
CLASSIFICATION_TYPE = U
NORAD_CAT_ID   = 67340
ELEMENT_SET_NO = 999
REV_AT_EPOCH   = 267
BSTAR          = -.51096187E-2
MEAN_MOTION_DOT = -.1343378E-1
MEAN_MOTION_DDOT = 0

CCSDS_OMM_VERS = 2.0
CREATION_DATE  = 
ORIGINATOR     = 

OBJECT_NAME    = STARLINK-36453
OBJECT_ID      = 2026-003H
CENTER_NAME    = EARTH
REF_FRAME      = TEME
TIME_SYSTEM    = UTC
MEAN_ELEMENT_THEORY = SGP/SGP4

EPOCH          = 2026-01-18T22:00:03.000096
MEAN_MOTION    = 15.89244577
ECCENTRICITY   = .00016403
INCLINATION    = 42.9984
RA_OF_ASC_NODE = 155.2247
ARG_OF_PERICENTER = 279.1644
MEAN_ANOMALY   = 350.0557

EPHEMERIS_TYPE = 0
CLASSIFICATION_TYPE = U
NORAD_CAT_ID   = 67341
ELEMENT_SET_NO = 999
REV_AT_EPOCH   = 267
BSTAR          = -.51344501E-2
MEAN_MOTION_DOT = -.1350951E-1
MEAN_MOTION_DDOT = 0

CCSDS_OMM_VERS = 2.0
CREATION_DATE  = 
ORIGINATOR     = 

OBJECT_NAME    = STARLINK-36432
OBJECT_ID      = 2026-003J
CENTER_NAME    = EARTH
REF_FRAME      = TEME
TIME_SYSTEM    = UTC
MEAN_ELEMENT_THEORY = SGP/SGP4

EPOCH          = 2026-01-18T22:00:03.000096
MEAN_MOTION    = 15.89281833
ECCENTRICITY   = .00016744
INCLINATION    = 42.9982
RA_OF_ASC_NODE = 155.2194
ARG_OF_PERICENTER = 277.1119
MEAN_ANOMALY   = 354.3760

EPHEMERIS_TYPE = 0
CLASSIFICATION_TYPE = U
NORAD_CAT_ID   = 67342
ELEMENT_SET_NO = 999
REV_AT_EPOCH   = 266
BSTAR          = -.51623775E-2
MEAN_MOTION_DOT = -.135969E-1
MEAN_MOTION_DDOT = 0

CCSDS_OMM_VERS = 2.0
CREATION_DATE  = 
ORIGINATOR     = 

OBJECT_NAME    = STARLINK-36458
OBJECT_ID      = 2026-003K
CENTER_NAME    = EARTH
REF_FRAME      = TEME
TIME_SYSTEM    = UTC
MEAN_ELEMENT_THEORY = SGP/SGP4

EPOCH          = 2026-01-18T22:00:03.000096
MEAN_MOTION    = 15.89310679
ECCENTRICITY   = .0001508
INCLINATION    = 42.9982
RA_OF_ASC_NODE = 155.2146
ARG_OF_PERICENTER = 276.5465
MEAN_ANOMALY   = 356.8506

EPHEMERIS_TYPE = 0
CLASSIFICATION_TYPE = U
NORAD_CAT_ID   = 67343
ELEMENT_SET_NO = 999
REV_AT_EPOCH   = 267
BSTAR          = -.51463269E-2
MEAN_MOTION_DOT = -.1357612E-1
MEAN_MOTION_DDOT = 0

CCSDS_OMM_VERS = 2.0
CREATION_DATE  = 
ORIGINATOR     = 

OBJECT_NAME    = STARLINK-36422
OBJECT_ID      = 2026-003L
CENTER_NAME    = EARTH
REF_FRAME      = TEME
TIME_SYSTEM    = UTC
MEAN_ELEMENT_THEORY = SGP/SGP4

EPOCH          = 2026-01-18T22:00:03.000096
MEAN_MOTION    = 15.89348441
ECCENTRICITY   = .00016744
INCLINATION    = 42.9981
RA_OF_ASC_NODE = 155.2079
ARG_OF_PERICENTER = 272.1861
MEAN_ANOMALY   = 3.7574

EPHEMERIS_TYPE = 0
CLASSIFICATION_TYPE = U
NORAD_CAT_ID   = 67344
ELEMENT_SET_NO = 999
REV_AT_EPOCH   = 266
BSTAR          = -.52011868E-2
MEAN_MOTION_DOT = -.1372731E-1
MEAN_MOTION_DDOT = 0

CCSDS_OMM_VERS = 2.0
CREATION_DATE  = 
ORIGINATOR     = 

OBJECT_NAME    = STARLINK-35676
OBJECT_ID      = 2026-003M
CENTER_NAME    = EARTH
REF_FRAME      = TEME
TIME_SYSTEM    = UTC
MEAN_ELEMENT_THEORY = SGP/SGP4

EPOCH          = 2026-01-18T22:00:03.000096
MEAN_MOTION    = 15.89378325
ECCENTRICITY   = .00015435
INCLINATION    = 42.9983
RA_OF_ASC_NODE = 155.2019
ARG_OF_PERICENTER = 277.4879
MEAN_ANOMALY   = 0.8894

EPHEMERIS_TYPE = 0
CLASSIFICATION_TYPE = U
NORAD_CAT_ID   = 67345
ELEMENT_SET_NO = 999
REV_AT_EPOCH   = 266
BSTAR          = -.52135414E-2
MEAN_MOTION_DOT = -.1377322E-1
MEAN_MOTION_DDOT = 0

CCSDS_OMM_VERS = 2.0
CREATION_DATE  = 
ORIGINATOR     = 

OBJECT_NAME    = STARLINK-36472
OBJECT_ID      = 2026-003N
CENTER_NAME    = EARTH
REF_FRAME      = TEME
TIME_SYSTEM    = UTC
MEAN_ELEMENT_THEORY = SGP/SGP4

EPOCH          = 2026-01-18T22:00:03.000096
MEAN_MOTION    = 15.89415651
ECCENTRICITY   = .0001558
INCLINATION    = 42.9984
RA_OF_ASC_NODE = 155.1965
ARG_OF_PERICENTER = 276.5972
MEAN_ANOMALY   = 3.7996

EPHEMERIS_TYPE = 0
CLASSIFICATION_TYPE = U
NORAD_CAT_ID   = 67346
ELEMENT_SET_NO = 999
REV_AT_EPOCH   = 266
BSTAR          = -.52398029E-2
MEAN_MOTION_DOT = -.138571E-1
MEAN_MOTION_DDOT = 0

CCSDS_OMM_VERS = 2.0
CREATION_DATE  = 
ORIGINATOR     = 

OBJECT_NAME    = STARLINK-36420
OBJECT_ID      = 2026-003P
CENTER_NAME    = EARTH
REF_FRAME      = TEME
TIME_SYSTEM    = UTC
MEAN_ELEMENT_THEORY = SGP/SGP4

EPOCH          = 2026-01-18T22:00:03.000096
MEAN_MOTION    = 15.89479916
ECCENTRICITY   = .00016647
INCLINATION    = 42.9985
RA_OF_ASC_NODE = 155.1851
ARG_OF_PERICENTER = 279.1363
MEAN_ANOMALY   = 5.8313

EPHEMERIS_TYPE = 0
CLASSIFICATION_TYPE = U
NORAD_CAT_ID   = 67347
ELEMENT_SET_NO = 999
REV_AT_EPOCH   = 267
BSTAR          = -.52594139E-2
MEAN_MOTION_DOT = -.1394333E-1
MEAN_MOTION_DDOT = 0

CCSDS_OMM_VERS = 2.0
CREATION_DATE  = 
ORIGINATOR     = 

OBJECT_NAME    = STARLINK-36467
OBJECT_ID      = 2026-003Q
CENTER_NAME    = EARTH
REF_FRAME      = TEME
TIME_SYSTEM    = UTC
MEAN_ELEMENT_THEORY = SGP/SGP4

EPOCH          = 2026-01-18T22:00:03.000096
MEAN_MOTION    = 15.89444120
ECCENTRICITY   = .00016575
INCLINATION    = 42.9985
RA_OF_ASC_NODE = 155.1908
ARG_OF_PERICENTER = 278.9823
MEAN_ANOMALY   = 3.9473

EPHEMERIS_TYPE = 0
CLASSIFICATION_TYPE = U
NORAD_CAT_ID   = 67348
ELEMENT_SET_NO = 999
REV_AT_EPOCH   = 267
BSTAR          = -.52498013E-2
MEAN_MOTION_DOT = -.1389871E-1
MEAN_MOTION_DDOT = 0

CCSDS_OMM_VERS = 2.0
CREATION_DATE  = 
ORIGINATOR     = 

OBJECT_NAME    = STARLINK-36457
OBJECT_ID      = 2026-003R
CENTER_NAME    = EARTH
REF_FRAME      = TEME
TIME_SYSTEM    = UTC
MEAN_ELEMENT_THEORY = SGP/SGP4

EPOCH          = 2026-01-18T22:00:03.000096
MEAN_MOTION    = 15.89516615
ECCENTRICITY   = .00015369
INCLINATION    = 42.9986
RA_OF_ASC_NODE = 155.1787
ARG_OF_PERICENTER = 274.9851
MEAN_ANOMALY   = 12.6025

EPHEMERIS_TYPE = 0
CLASSIFICATION_TYPE = U
NORAD_CAT_ID   = 67349
ELEMENT_SET_NO = 999
REV_AT_EPOCH   = 267
BSTAR          = -.53137962E-2
MEAN_MOTION_DOT = -.1409097E-1
MEAN_MOTION_DDOT = 0

