STARLINK-36413          
1 67338U 26003E   26018.91670139 -.01327505  00000+0 -50578-2 0  9992
2 67338  42.9983 155.2433 0001546 275.0479 346.9502 15.89150272  2671
STARLINK-36451          
1 67339U 26003F   26018.91670139 -.01331336  00000+0 -50658-2 0  9999
2 67339  42.9982 155.2375 0001614 275.3294 348.8235 15.89182662  2672
STARLINK-36339          
1 67340U 26003G   26018.91670139 -.01343378  00000+0 -51096-2 0  9997
2 67340  42.9982 155.2315 0001592 273.2990 353.4305 15.89214733  2678
STARLINK-36453          
1 67341U 26003H   26018.91670139 -.01350951  00000+0 -51345-2 0  9990
2 67341  42.9984 155.2247 0001640 279.1644 350.0557 15.89244577  2671
STARLINK-36432          
1 67342U 26003J   26018.91670139 -.01359690  00000+0 -51624-2 0  9990
2 67342  42.9982 155.2194 0001674 277.1119 354.3760 15.89281833  2661
STARLINK-36458          
1 67343U 26003K   26018.91670139 -.01357612  00000+0 -51463-2 0  9994
2 67343  42.9982 155.2146 0001508 276.5465 356.8506 15.89310679  2679
STARLINK-36422          
1 67344U 26003L   26018.91670139 -.01372731  00000+0 -52012-2 0  9995
2 67344  42.9981 155.2079 0001674 272.1861   3.7574 15.89348441  2660
STARLINK-35676          
1 67345U 26003M   26018.91670139 -.01377322  00000+0 -52135-2 0  9993
2 67345  42.9983 155.2019 0001543 277.4879   0.8894 15.89378325  2666
STARLINK-36472          
1 67346U 26003N   26018.91670139 -.01385710  00000+0 -52398-2 0  9995
2 67346  42.9984 155.1965 0001558 276.5972   3.7996 15.89415651  2666
STARLINK-36420          
1 67347U 26003P   26018.91670139 -.01394333  00000+0 -52594-2 0  9995
2 67347  42.9985 155.1851 0001664 279.1363   5.8313 15.89479916  2674
STARLINK-36467          
1 67348U 26003Q   26018.91670139 -.01389871  00000+0 -52498-2 0  9990
2 67348  42.9985 155.1908 0001657 278.9823   3.9473 15.89444120  2673
STARLINK-36457          
1 67349U 26003R   26018.91670139 -.01409097  00000+0 -53138-2 0  9996
2 67349  42.9986 155.1787 0001536 274.9851  12.6025 15.89516615  2672
